[{"OBJECT_NAME":"STARLINK-35638","OBJECT_ID":"2025-240Z","EPOCH":"2026-02-20T05:32:48.251328","MEAN_MOTION":15.30213053,"ECCENTRICITY":0.00013202,"INCLINATION":53.1593,"RA_OF_ASC_NODE":144.024,"ARG_OF_PERICENTER":75.8382,"MEAN_ANOMALY":284.2765,"EPHEMERIS_TYPE":0,"CLASSIFICATION_TYPE":"U","NORAD_CAT_ID":66169,"ELEMENT_SET_NO":999,"REV_AT_EPOCH":1931,"BSTAR":0.000742358,"MEAN_MOTION_DOT":0.000217,"MEAN_MOTION_DDOT":0},{"OBJECT_NAME":"STARLINK-35585","OBJECT_ID":"2025-240AA","EPOCH":"2026-02-20T05:55:36.211296","MEAN_MOTION":15.30209315,"ECCENTRICITY":0.00016796,"INCLINATION":53.1604,"RA_OF_ASC_NODE":144.1273,"ARG_OF_PERICENTER":65.344,"MEAN_ANOMALY":294.7736,"EPHEMERIS_TYPE":0,"CLASSIFICATION_TYPE":"U","NORAD_CAT_ID":66170,"ELEMENT_SET_NO":999,"REV_AT_EPOCH":1931,"BSTAR":0.00061343246,"MEAN_MOTION_DOT":0.00017858,"MEAN_MOTION_DDOT":0},{"OBJECT_NAME":"STARLINK-35606","OBJECT_ID":"2025-240AB","EPOCH":"2026-02-20T06:30:23.198976","MEAN_MOTION":15.30210103,"ECCENTRICITY":0.00013223,"INCLINATION":53.1575,"RA_OF_ASC_NODE":143.5541,"ARG_OF_PERICENTER":106.1463,"MEAN_ANOMALY":253.9684,"EPHEMERIS_TYPE":0,"CLASSIFICATION_TYPE":"U","NORAD_CAT_ID":66171,"ELEMENT_SET_NO":999,"REV_AT_EPOCH":1932,"BSTAR":0.00070304312,"MEAN_MOTION_DOT":0.00020527,"MEAN_MOTION_DDOT":0},{"OBJECT_NAME":"STARLINK-35627","OBJECT_ID":"2025-240AC","EPOCH":"2026-02-20T06:53:10.980960","MEAN_MOTION":15.30206619,"ECCENTRICITY":0.00013449,"INCLINATION":53.1578,"RA_OF_ASC_NODE":143.6654,"ARG_OF_PERICENTER":99.887,"MEAN_ANOMALY":260.2283,"EPHEMERIS_TYPE":0,"CLASSIFICATION_TYPE":"U","NORAD_CAT_ID":66172,"ELEMENT_SET_NO":999,"REV_AT_EPOCH":1932,"BSTAR":0.00054620208,"MEAN_MOTION_DOT":0.00015856,"MEAN_MOTION_DDOT":0},{"OBJECT_NAME":"STARLINK-35634","OBJECT_ID":"2025-240AD","EPOCH":"2026-02-19T16:20:52.243872","MEAN_MOTION":15.30201544,"ECCENTRICITY":0.00012078,"INCLINATION":53.158,"RA_OF_ASC_NODE":146.2795,"ARG_OF_PERICENTER":69.4114,"MEAN_ANOMALY":290.7016,"EPHEMERIS_TYPE":0,"CLASSIFICATION_TYPE":"U","NORAD_CAT_ID":66173,"ELEMENT_SET_NO":999,"REV_AT_EPOCH":1923,"BSTAR":0.0014443034,"MEAN_MOTION_DOT":0.00042665,"MEAN_MOTION_DDOT":0},{"OBJECT_NAME":"STARLINK-35363","OBJECT_ID":"2025-243B","EPOCH":"2026-02-20T01:31:40.325952","MEAN_MOTION":15.30219276,"ECCENTRICITY":8.152e-5,"INCLINATION":53.1606,"RA_OF_ASC_NODE":327.2314,"ARG_OF_PERICENTER":118.2582,"MEAN_ANOMALY":241.8502,"EPHEMERIS_TYPE":0,"CLASSIFICATION_TYPE":"U","NORAD_CAT_ID":66178,"ELEMENT_SET_NO":999,"REV_AT_EPOCH":1795,"BSTAR":0.00097043117,"MEAN_MOTION_DOT":0.0002851,"MEAN_MOTION_DDOT":0},{"OBJECT_NAME":"STARLINK-35346","OBJECT_ID":"2025-243C","EPOCH":"2026-02-20T04:44:20.365152","MEAN_MOTION":15.30204677,"ECCENTRICITY":0.00012254,"INCLINATION":53.1577,"RA_OF_ASC_NODE":326.6473,"ARG_OF_PERICENTER":67.6713,"MEAN_ANOMALY":292.4418,"EPHEMERIS_TYPE":0,"CLASSIFICATION_TYPE":"U","NORAD_CAT_ID":66179,"ELEMENT_SET_NO":999,"REV_AT_EPOCH":1797,"BSTAR":0.0004767349,"MEAN_MOTION_DOT":0.00013789,"MEAN_MOTION_DDOT":0},{"OBJECT_NAME":"STARLINK-35335","OBJECT_ID":"2025-243D","EPOCH":"2026-02-20T06:22:57.089856","MEAN_MOTION":15.30209676,"ECCENTRICITY":0.00011312,"INCLINATION":53.1584,"RA_OF_ASC_NODE":326.3629,"ARG_OF_PERICENTER":91.979,"MEAN_ANOMALY":268.134,"EPHEMERIS_TYPE":0,"CLASSIFICATION_TYPE":"U","NORAD_CAT_ID":66180,"ELEMENT_SET_NO":999,"REV_AT_EPOCH":1798,"BSTAR":0.00058516637,"MEAN_MOTION_DOT":0.00017017,"MEAN_MOTION_DDOT":0},{"OBJECT_NAME":"STARLINK-35342","OBJECT_ID":"2025-243E","EPOCH":"2026-02-20T03:17:53.248704","MEAN_MOTION":15.30207245,"ECCENTRICITY":0.00013024,"INCLINATION":53.1585,"RA_OF_ASC_NODE":326.9863,"ARG_OF_PERICENTER":75.9222,"MEAN_ANOMALY":284.1923,"EPHEMERIS_TYPE":0,"CLASSIFICATION_TYPE":"U","NORAD_CAT_ID":66181,"ELEMENT_SET_NO":999,"REV_AT_EPOCH":1796,"BSTAR":0.00096645397,"MEAN_MOTION_DOT":0.0002838,"MEAN_MOTION_DDOT":0},{"OBJECT_NAME":"STARLINK-35333","OBJECT_ID":"2025-243F","EPOCH":"2026-02-20T03:20:55.560480","MEAN_MOTION":15.30199145,"ECCENTRICITY":0.00014221,"INCLINATION":53.1593,"RA_OF_ASC_NODE":326.9971,"ARG_OF_PERICENTER":72.625,"MEAN_ANOMALY":287.4906,"EPHEMERIS_TYPE":0,"CLASSIFICATION_TYPE":"U","NORAD_CAT_ID":66182,"ELEMENT_SET_NO":999,"REV_AT_EPOCH":1796,"BSTAR":0.00066390272,"MEAN_MOTION_DOT":0.00019354,"MEAN_MOTION_DDOT":0},{"OBJECT_NAME":"STARLINK-35310","OBJECT_ID":"2025-243G","EPOCH":"2026-02-20T03:25:29.234208","MEAN_MOTION":15.30200666,"ECCENTRICITY":0.00012832,"INCLINATION":53.16,"RA_OF_ASC_NODE":327.0177,"ARG_OF_PERICENTER":90.3821,"MEAN_ANOMALY":269.7327,"EPHEMERIS_TYPE":0,"CLASSIFICATION_TYPE":"U","NORAD_CAT_ID":66183,"ELEMENT_SET_NO":999,"REV_AT_EPOCH":1796,"BSTAR":0.0010662613,"MEAN_MOTION_DOT":0.00031354,"MEAN_MOTION_DDOT":0},{"OBJECT_NAME":"STARLINK-35317","OBJECT_ID":"2025-243H","EPOCH":"2026-02-19T23:59:08.391552","MEAN_MOTION":15.30215213,"ECCENTRICITY":0.0001666,"INCLINATION":53.159,"RA_OF_ASC_NODE":327.547,"ARG_OF_PERICENTER":137.777,"MEAN_ANOMALY":222.3359,"EPHEMERIS_TYPE":0,"CLASSIFICATION_TYPE":"U","NORAD_CAT_ID":66184,"ELEMENT_SET_NO":999,"REV_AT_EPOCH":1794,"BSTAR":0.00082299015,"MEAN_MOTION_DOT":0.00024106,"MEAN_MOTION_DDOT":0},{"OBJECT_NAME":"STARLINK-35377","OBJECT_ID":"2025-243J","EPOCH":"2026-02-20T03:22:26.840352","MEAN_MOTION":15.3018892,"ECCENTRICITY":0.00013203,"INCLINATION":53.1595,"RA_OF_ASC_NODE":327.0074,"ARG_OF_PERICENTER":89.8189,"MEAN_ANOMALY":270.2963,"EPHEMERIS_TYPE":0,"CLASSIFICATION_TYPE":"U","NORAD_CAT_ID":66185,"ELEMENT_SET_NO":999,"REV_AT_EPOCH":1796,"BSTAR":0.00092664135,"MEAN_MOTION_DOT":0.00027176,"MEAN_MOTION_DDOT":0},{"OBJECT_NAME":"STARLINK-35365","OBJECT_ID":"2025-243K","EPOCH":"2026-02-20T04:50:25.431072","MEAN_MOTION":15.30200748,"ECCENTRICITY":0.00014512,"INCLINATION":53.1593,"RA_OF_ASC_NODE":326.6774,"ARG_OF_PERICENTER":73.2872,"MEAN_ANOMALY":286.8288,"EPHEMERIS_TYPE":0,"CLASSIFICATION_TYPE":"U","NORAD_CAT_ID":66186,"ELEMENT_SET_NO":999,"REV_AT_EPOCH":1797,"BSTAR":0.00090664714,"MEAN_MOTION_DOT":0.0002659,"MEAN_MOTION_DDOT":0},{"OBJECT_NAME":"STARLINK-35350","OBJECT_ID":"2025-243L","EPOCH":"2026-02-20T03:27:00.401760","MEAN_MOTION":15.30192591,"ECCENTRICITY":0.00013728,"INCLINATION":53.1595,"RA_OF_ASC_NODE":327.0291,"ARG_OF_PERICENTER":73.6199,"MEAN_ANOMALY":286.4953,"EPHEMERIS_TYPE":0,"CLASSIFICATION_TYPE":"U","NORAD_CAT_ID":66187,"ELEMENT_SET_NO":999,"REV_AT_EPOCH":1796,"BSTAR":0.00090049757,"MEAN_MOTION_DOT":0.000264,"MEAN_MOTION_DDOT":0},{"OBJECT_NAME":"STARLINK-35041","OBJECT_ID":"2025-243M","EPOCH":"2026-02-20T01:28:38.121312","MEAN_MOTION":15.30206099,"ECCENTRICITY":0.00018603,"INCLINATION":53.1582,"RA_OF_ASC_NODE":327.2224,"ARG_OF_PERICENTER":35.3034,"MEAN_ANOMALY":324.8089,"EPHEMERIS_TYPE":0,"CLASSIFICATION_TYPE":"U","NORAD_CAT_ID":66188,"ELEMENT_SET_NO":999,"REV_AT_EPOCH":1795,"BSTAR":0.00082642415,"MEAN_MOTION_DOT":0.00024202,"MEAN_MOTION_DDOT":0},{"OBJECT_NAME":"STARLINK-34694","OBJECT_ID":"2025-243N","EPOCH":"2026-02-20T04:27:37.128960","MEAN_MOTION":15.30216167,"ECCENTRICITY":9.758e-5,"INCLINATION":53.1584,"RA_OF_ASC_NODE":326.5766,"ARG_OF_PERICENTER":79.7575,"MEAN_ANOMALY":280.3535,"EPHEMERIS_TYPE":0,"CLASSIFICATION_TYPE":"U","NORAD_CAT_ID":66189,"ELEMENT_SET_NO":999,"REV_AT_EPOCH":1797,"BSTAR":0.00053013125,"MEAN_MOTION_DOT":0.00015382,"MEAN_MOTION_DDOT":0},{"OBJECT_NAME":"STARLINK-34863","OBJECT_ID":"2025-243P","EPOCH":"2026-02-20T04:45:51.354720","MEAN_MOTION":15.30213667,"ECCENTRICITY":6.549e-5,"INCLINATION":53.1586,"RA_OF_ASC_NODE":326.6581,"ARG_OF_PERICENTER":134.2412,"MEAN_ANOMALY":225.8642,"EPHEMERIS_TYPE":0,"CLASSIFICATION_TYPE":"U","NORAD_CAT_ID":66190,"ELEMENT_SET_NO":999,"REV_AT_EPOCH":1797,"BSTAR":0.00060577623,"MEAN_MOTION_DOT":0.00017632,"MEAN_MOTION_DDOT":0},{"OBJECT_NAME":"STARLINK-35061","OBJECT_ID":"2025-243Q","EPOCH":"2026-02-20T03:30:02.796480","MEAN_MOTION":15.30194179,"ECCENTRICITY":0.00013807,"INCLINATION":53.1596,"RA_OF_ASC_NODE":327.0378,"ARG_OF_PERICENTER":73.0615,"MEAN_ANOMALY":287.0537,"EPHEMERIS_TYPE":0,"CLASSIFICATION_TYPE":"U","NORAD_CAT_ID":66191,"ELEMENT_SET_NO":999,"REV_AT_EPOCH":1796,"BSTAR":0.00069370108,"MEAN_MOTION_DOT":0.00020239,"MEAN_MOTION_DDOT":0},{"OBJECT_NAME":"STARLINK-34937","OBJECT_ID":"2025-243R","EPOCH":"2026-02-20T03:34:36.382944","MEAN_MOTION":15.30196524,"ECCENTRICITY":0.00013071,"INCLINATION":53.16,"RA_OF_ASC_NODE":327.0567,"ARG_OF_PERICENTER":74.9109,"MEAN_ANOMALY":285.2036,"EPHEMERIS_TYPE":0,"CLASSIFICATION_TYPE":"U","NORAD_CAT_ID":66192,"ELEMENT_SET_NO":999,"REV_AT_EPOCH":1796,"BSTAR":0.00089978336,"MEAN_MOTION_DOT":0.00026382,"MEAN_MOTION_DDOT":0},{"OBJECT_NAME":"STARLINK-35197","OBJECT_ID":"2025-243S","EPOCH":"2026-02-19T23:27:13.795200","MEAN_MOTION":15.30208989,"ECCENTRICITY":0.0001034,"INCLINATION":53.1603,"RA_OF_ASC_NODE":327.4043,"ARG_OF_PERICENTER":41.2261,"MEAN_ANOMALY":318.8818,"EPHEMERIS_TYPE":0,"CLASSIFICATION_TYPE":"U","NORAD_CAT_ID":66193,"ELEMENT_SET_NO":999,"REV_AT_EPOCH":1794,"BSTAR":0.00071307,"MEAN_MOTION_DOT":0.00020825,"MEAN_MOTION_DDOT":0},{"OBJECT_NAME":"STARLINK-35374","OBJECT_ID":"2025-243T","EPOCH":"2026-02-20T04:13:56.976096","MEAN_MOTION":15.30217822,"ECCENTRICITY":0.00012093,"INCLINATION":53.1599,"RA_OF_ASC_NODE":326.518,"ARG_OF_PERICENTER":67.3455,"MEAN_ANOMALY":292.7674,"EPHEMERIS_TYPE":0,"CLASSIFICATION_TYPE":"U","NORAD_CAT_ID":66194,"ELEMENT_SET_NO":999,"REV_AT_EPOCH":1797,"BSTAR":0.00078795437,"MEAN_MOTION_DOT":0.00023063,"MEAN_MOTION_DDOT":0},{"OBJECT_NAME":"STARLINK-34813","OBJECT_ID":"2025-243U","EPOCH":"2026-02-20T01:10:24.175488","MEAN_MOTION":15.30210459,"ECCENTRICITY":0.00012695,"INCLINATION":53.1599,"RA_OF_ASC_NODE":327.1456,"ARG_OF_PERICENTER":47.6198,"MEAN_ANOMALY":312.491,"EPHEMERIS_TYPE":0,"CLASSIFICATION_TYPE":"U","NORAD_CAT_ID":66195,"ELEMENT_SET_NO":999,"REV_AT_EPOCH":1795,"BSTAR":0.0007187748,"MEAN_MOTION_DOT":0.00020996,"MEAN_MOTION_DDOT":0}]
